[{"OBJECT_NAME":"TOMORROW-S1","OBJECT_ID":"2024-149M","EPOCH":"2026-03-09T17:23:34.533600","MEAN_MOTION":15.31198363,"ECCENTRICITY":0.00018188,"INCLINATION":97.3791,"RA_OF_ASC_NODE":149.6044,"ARG_OF_PERICENTER":207.204,"MEAN_ANOMALY":152.9106,"EPHEMERIS_TYPE":0,"CLASSIFICATION_TYPE":"U","NORAD_CAT_ID":60479,"ELEMENT_SET_NO":999,"REV_AT_EPOCH":8686,"BSTAR":0.0002885603,"MEAN_MOTION_DOT":8.62e-5,"MEAN_MOTION_DDOT":0},{"OBJECT_NAME":"STARLINK-35316","OBJECT_ID":"2025-216J","EPOCH":"2026-03-09T21:17:54.638016","MEAN_MOTION":15.30210448,"ECCENTRICITY":8.139e-5,"INCLINATION":53.159,"RA_OF_ASC_NODE":331.9965,"ARG_OF_PERICENTER":45.0164,"MEAN_ANOMALY":315.0902,"EPHEMERIS_TYPE":0,"CLASSIFICATION_TYPE":"U","NORAD_CAT_ID":65742,"ELEMENT_SET_NO":999,"REV_AT_EPOCH":2549,"BSTAR":0.00096658214,"MEAN_MOTION_DOT":0.00028387,"MEAN_MOTION_DDOT":0}]
